COSMOS 2419 (714)       
1 28915U 05050A   17283.98700368  .00000009  00000-0  00000+0 0  9995
2 28915  65.5537  61.9535 0015796 358.2060   2.5340  2.13106762 91809
COSMOS 2425 (716)       
1 29670U 06062A   17284.07613928  .00000020  00000-0  10000-3 0  9992
2 29670  65.4040 300.9535 0020499 337.8374 142.7354  2.13105079 84005
COSMOS 2426 (717)       
1 29671U 06062B   17283.65195933  .00000019  00000-0  10000-3 0  9995
2 29671  65.4219 301.0607 0018477 174.0186 198.6232  2.13103135 84007
COSMOS 2424 (715)       
1 29672U 06062C   17284.43989389  .00000021  00000-0  10000-3 0  9992
2 29672  65.4058 300.9537 0018034 172.5764 259.5988  2.13102364 84012
COSMOS 2433 (720)       
1 32275U 07052A   17284.26809448  .00000009  00000-0  10000-3 0  9999
2 32275  65.5698  61.7252 0001618 206.0485 253.7043  2.13104808 77526
COSMOS 2432 (719)       
1 32276U 07052B   17284.33085597  .00000009  00000-0  10000-3 0  9999
2 32276  65.5820  61.7963 0009476 342.8393 117.6837  2.13104035 77521
COSMOS 2434 (721)       
1 32393U 07065A   17284.42067339  .00000021  00000-0  00000+0 0  9996
2 32393  65.0204 300.0356 0003253 157.4492 308.3960  2.13103042 76234
COSMOS 2436 (723)       
1 32395U 07065C   17284.38940855  .00000021  00000-0  10000-3 0  9991
2 32395  65.0299 300.0844 0013655 349.4975 141.6321  2.13104407 76165
COSMOS 2443 (725)       
1 33379U 08046B   17283.87701903  .00000008  00000-0  00000+0 0  9996
2 33379  65.4994  61.1106 0013012 177.4568 240.6422  2.13099380 70387
COSMOS 2456 (730)       
1 36111U 09070A   17284.10533589  .00000006  00000-0  00000+0 0  9999
2 36111  64.1797 179.6134 0004489 315.8665  79.5674  2.13103078 60894
COSMOS 2457 (733)       
1 36112U 09070B   17284.53680517  .00000000  00000-0  00000+0 0  9995
2 36112  64.1622 179.5160 0006126 168.0891 326.3930  2.13101832 60905
COSMOS 2458 (734)       
1 36113U 09070C   17283.57040244  .00000013  00000-0  10000-3 0  9995
2 36113  64.1688 179.5580 0001654   4.7311 156.4331  2.13101931 60882
COSMOS 2459 (731)       
1 36400U 10007A   17284.40547983  .00000006  00000-0  10000-3 0  9993
2 36400  65.4787  60.8119 0025827 356.2466  70.0046  2.13102264 59252
COSMOS 2461 (735)       
1 36401U 10007B   17284.07109291  .00000007  00000-0  10000-3 0  9994
2 36401  65.4705  60.8004 0008185  81.0335 359.3053  2.13102240 59246
COSMOS 2460 (732)       
1 36402U 10007C   17283.60370950  .00000007  00000-0  10000-3 0  9995
2 36402  65.4617  60.7871 0002236 116.4257   6.4073  2.13101820 59231
COSMOS 2465 (737)       
1 37138U 10041B   17283.94433402  .00000019  00000-0  00000+0 0  9997
2 37138  64.6171 299.9828 0036459 172.7255 330.7157  2.13097569 55314
COSMOS 2464 (736)       
1 37139U 10041C   17284.22549544  .00000020  00000-0  00000+0 0  9997
2 37139  64.6252 299.9718 0021337   6.5643 177.2854  2.13102788 55315
COSMOS 2471 (701K)      
1 37372U 11009A   17284.34872175  .00000006  00000-0  00000+0 0  9997
2 37372  65.4594  60.7091 0007540 221.2460 251.7420  2.13107682 51527
COSMOS 2474 (742)       
1 37829U 11055A   17284.12277184  .00000006  00000-0  00000+0 0  9990
2 37829  64.5038 180.2263 0008406 249.2684  18.8061  2.13102040 46885
COSMOS 2476 (744)       
1 37867U 11064A   17284.35171282  .00000003  00000-0  00000+0 0  9996
2 37867  64.4837 180.2872 0017746 243.2055 246.4711  2.13102050 46244
COSMOS 2477 (745)       
1 37868U 11064B   17283.85600315  .00000009  00000-0  00000+0 0  9991
2 37868  64.4923 180.3500 0015650 244.4529  44.0010  2.13101972 46180
COSMOS 2475 (743)       
1 37869U 11064C   17284.39499528  .00000002  00000-0  00000+0 0  9997
2 37869  64.4996 180.3240 0020403 270.5185  27.9463  2.13102307 46200
COSMOS 2485 (747)       
1 39155U 13019A   17283.74454170  .00000011  00000-0  00000-0 0  9992
2 39155  64.6539 180.3631 0018232 237.9746 190.8929  2.13102142 34702
COSMOS 2492 (754)       
1 39620U 14012A   17284.58046786  .00000005  00000-0  10000-3 0  9993
2 39620  65.3521  60.6744 0012754 335.4086  49.1303  2.13103473 27675
COSMOS 2500 (755)       
1 40001U 14032A   17283.76154693  .00000007  00000-0  00000+0 0  9993
2 40001  65.2928  60.6910 0006516 186.9781 152.1273  2.13102884 25860
COSMOS 2501 (702K)      
1 40315U 14075A   17284.15722975  .00000017  00000-0  00000+0 0  9997
2 40315  64.3507 301.2762 0017039 211.7055 235.5337  2.13098684 22285
COSMOS 2514 (751)       
1 41330U 16008A   17284.05573233  .00000006  00000-0  00000+0 0  9991
2 41330  65.0935  60.7959 0009311 202.1023 182.9680  2.13103421 13040
COSMOS 2516 (753)       
1 41554U 16032A   17283.74069356  .00000017  00000-0  00000+0 0  9999
2 41554  64.5709 301.0851 0014621 223.9549 171.4457  2.13101787 10648
